{"type": "FeatureCollection", "features": [ {"type": "Feature", "properties": {"norad_id": 41469, "name": "IRNSS-1G", "group": "gnss", "lat": -0.6682394804143156, "lon": 93.55835306900632, "alt_km": 35774.21823072505, "timestamp": "2025-12-17T15:50:10.022136+00:00", "meta": {"OBJECT_NAME": "IRNSS-1G", "OBJECT_ID": "2016-027A", "EPOCH": "2025-12-17T05:22:53.239584", "MEAN_MOTION": 1.0027801, "ECCENTRICITY": 0.00025752, "INCLINATION": 4.745, "RA_OF_ASC_NODE": 101.9816, "ARG_OF_PERICENTER": 331.8345, "MEAN_ANOMALY": 222.4512, "EPHEMERIS_TYPE": 0, "CLASSIFICATION_TYPE": "U", "NORAD_CAT_ID": 41469, "ELEMENT_SET_NO": 999, "REV_AT_EPOCH": 3535, "BSTAR": 0, "MEAN_MOTION_DOT": -3.13e-06, "MEAN_MOTION_DDOT": 0}, "tle": {"line1": "1 41469U 16027A   25351.22422731 -.00000313  00000+0  00000+0 0  9995", "line2": "2 41469   4.7450 101.9816 0002575 331.8345 222.4512  1.00278010 35351"}}, "geometry": {"type": "Point", "coordinates": [93.55835306900632, -0.6682394804143156]}}, {"type": "Feature", "properties": {"norad_id": 41549, "name": "GSAT0211 (GALILEO 14)", "group": "gnss", "lat": 51.44249499132013, "lon": -72.44879043352046, "alt_km": 23209.42100002728, "timestamp": "2025-12-17T15:50:10.022148+00:00", "meta": {"OBJECT_NAME": "GSAT0211 (GALILEO 14)", "OBJECT_ID": "2016-030A", "EPOCH": "2025-12-14T00:32:28.498848", "MEAN_MOTION": 1.70473201, "ECCENTRICITY": 0.000407, "INCLINATION": 55.1518, "RA_OF_ASC_NODE": 226.7881, "ARG_OF_PERICENTER": 16.5595, "MEAN_ANOMALY": 343.5367, "EPHEMERIS_TYPE": 0, "CLASSIFICATION_TYPE": "U", "NORAD_CAT_ID": 41549, "ELEMENT_SET_NO": 999, "REV_AT_EPOCH": 5951, "BSTAR": 0, "MEAN_MOTION_DOT": 2.8e-07, "MEAN_MOTION_DDOT": 0}, "tle": {"line1": "1 41549U 16030A   25348.02255207  .00000028  00000+0  00000+0 0  9996", "line2": "2 41549  55.1518 226.7881 0004070  16.5595 343.5367  1.70473201 59512"}}, "geometry": {"type": "Point", "coordinates": [-72.44879043352046, 51.44249499132013]}}, {"type": "Feature", "properties": {"norad_id": 41550, "name": "GSAT0210 (GALILEO 13)", "group": "gnss", "lat": -54.92362861334537, "lon": 144.2174783698043, "alt_km": 23225.883941037926, "timestamp": "2025-12-17T15:50:10.022160+00:00", "meta": {"OBJECT_NAME": "GSAT0210 (GALILEO 13)", "OBJECT_ID": "2016-030B", "EPOCH": "2025-12-14T06:43:07.791456", "MEAN_MOTION": 1.70473679, "ECCENTRICITY": 9.538e-05, "INCLINATION": 55.1512, "RA_OF_ASC_NODE": 226.7791, "ARG_OF_PERICENTER": 236.3511, "MEAN_ANOMALY": 123.7237, "EPHEMERIS_TYPE": 0, "CLASSIFICATION_TYPE": "U", "NORAD_CAT_ID": 41550, "ELEMENT_SET_NO": 999, "REV_AT_EPOCH": 5951, "BSTAR": 0, "MEAN_MOTION_DOT": 3e-07, "MEAN_MOTION_DDOT": 0}, "tle": {"line1": "1 41550U 16030B   25348.27995129  .00000030  00000+0  00000+0 0  9992", "line2": "2 41550  55.1512 226.7791 0000953 236.3511 123.7237  1.70473679 59517"}}, "geometry": {"type": "Point", "coordinates": [144.2174783698043, -54.92362861334537]}}, {"type": "Feature", "properties": {"norad_id": 41586, "name": "BEIDOU-2 G7 (C03)", "group": "gnss", "lat": 0.23218149457365894, "lon": 74.51375524385602, "alt_km": 35764.34297285098, "timestamp": "2025-12-17T15:50:10.022172+00:00", "meta": {"OBJECT_NAME": "BEIDOU-2 G7 (C03)", "OBJECT_ID": "2016-037A", "EPOCH": "2025-12-17T07:00:07.338240", "MEAN_MOTION": 1.00273126, "ECCENTRICITY": 0.00050563, "INCLINATION": 1.768, "RA_OF_ASC_NODE": 67.8201, "ARG_OF_PERICENTER": 3.4641, "MEAN_ANOMALY": 230.3643, "EPHEMERIS_TYPE": 0, "CLASSIFICATION_TYPE": "U", "NORAD_CAT_ID": 41586, "ELEMENT_SET_NO": 999, "REV_AT_EPOCH": 506, "BSTAR": 0, "MEAN_MOTION_DOT": -3.3e-06, "MEAN_MOTION_DDOT": 0}, "tle": {"line1": "1 41586U 16037A   25351.29175160 -.00000330  00000+0  00000+0 0  9993", "line2": "2 41586   1.7680  67.8201 0005056   3.4641 230.3643  1.00273126  5060"}}, "geometry": {"type": "Point", "coordinates": [74.51375524385602, 0.23218149457365894]}}, {"type": "Feature", "properties": {"norad_id": 41589, "name": "EUTELSAT 117 WEST B (WAAS/PRN 131)", "group": "gnss", "lat": -0.01336975452713562, "lon": -152.93384536703059, "alt_km": 35785.73382370963, "timestamp": "2025-12-17T15:50:10.022184+00:00", "meta": {"OBJECT_NAME": "EUTELSAT 117 WEST B (WAAS/PRN 131)", "OBJECT_ID": "2016-038B", "EPOCH": "2025-12-16T07:41:38.671008", "MEAN_MOTION": 1.00271538, "ECCENTRICITY": 1.358e-05, "INCLINATION": 0.0424, "RA_OF_ASC_NODE": 167.2106, "ARG_OF_PERICENTER": 90.3228, "MEAN_ANOMALY": 186.0956, "EPHEMERIS_TYPE": 0, "CLASSIFICATION_TYPE": "U", "NORAD_CAT_ID": 41589, "ELEMENT_SET_NO": 999, "REV_AT_EPOCH": 3482, "BSTAR": 0, "MEAN_MOTION_DOT": 1.2e-07, "MEAN_MOTION_DDOT": 0}, "tle": {"line1": "1 41589U 16038B   25350.32058647  .00000012  00000+0  00000+0 0  9996", "line2": "2 41589   0.0424 167.2106 0000135  90.3228 186.0956  1.00271538 34824"}}, "geometry": {"type": "Point", "coordinates": [-152.93384536703059, -0.01336975452713562]}}, {"type": "Feature", "properties": {"norad_id": 41859, "name": "GSAT0207 (GALILEO 15)", "group": "gnss", "lat": 53.13803484636863, "lon": -140.84770387318255, "alt_km": 23221.14625210216, "timestamp": "2025-12-17T15:50:10.022196+00:00", "meta": {"OBJECT_NAME": "GSAT0207 (GALILEO 15)", "OBJECT_ID": "2016-069A", "EPOCH": "2025-12-13T09:14:27.730752", "MEAN_MOTION": 1.70474447, "ECCENTRICITY": 0.00022423, "INCLINATION": 55.3826, "RA_OF_ASC_NODE": 106.2323, "ARG_OF_PERICENTER": 321.9482, "MEAN_ANOMALY": 38.0041, "EPHEMERIS_TYPE": 0, "CLASSIFICATION_TYPE": "U", "NORAD_CAT_ID": 41859, "ELEMENT_SET_NO": 999, "REV_AT_EPOCH": 5623, "BSTAR": 0, "MEAN_MOTION_DOT": 0, "MEAN_MOTION_DDOT": 0}, "tle": {"line1": "1 41859U 16069A   25347.38504318  .00000000  00000+0  00000+0 0  9990", "line2": "2 41859  55.3826 106.2323 0002242 321.9482  38.0041  1.70474447 56234"}}, "geometry": {"type": "Point", "coordinates": [-140.84770387318255, 53.13803484636863]}}, {"type": "Feature", "properties": {"norad_id": 41860, "name": "GSAT0212 (GALILEO 16)", "group": "gnss", "lat": -11.023133412346644, "lon": -66.17809026567546, "alt_km": 23229.915674111922, "timestamp": "2025-12-17T15:50:10.022210+00:00", "meta": {"OBJECT_NAME": "GSAT0212 (GALILEO 16)", "OBJECT_ID": "2016-069B", "EPOCH": "2025-12-15T14:02:25.791936", "MEAN_MOTION": 1.70474669, "ECCENTRICITY": 0.00021144, "INCLINATION": 55.3815, "RA_OF_ASC_NODE": 106.1668, "ARG_OF_PERICENTER": 24.9623, "MEAN_ANOMALY": 335.0097, "EPHEMERIS_TYPE": 0, "CLASSIFICATION_TYPE": "U", "NORAD_CAT_ID": 41860, "ELEMENT_SET_NO": 999, "REV_AT_EPOCH": 5652, "BSTAR": 0, "MEAN_MOTION_DOT": -8e-08, "MEAN_MOTION_DDOT": 0}, "tle": {"line1": "1 41860U 16069B   25349.58502074 -.00000008  00000+0  00000+0 0  9992", "line2": "2 41860  55.3815 106.1668 0002114  24.9623 335.0097  1.70474669 56529"}}, "geometry": {"type": "Point", "coordinates": [-66.17809026567546, -11.023133412346644]}}, {"type": "Feature", "properties": {"norad_id": 41861, "name": "GSAT0213 (GALILEO 17)", "group": "gnss", "lat": -26.022847050564035, "lon": 86.42084585734212, "alt_km": 23220.192462870797, "timestamp": "2025-12-17T15:50:10.022222+00:00", "meta": {"OBJECT_NAME": "GSAT0213 (GALILEO 17)", "OBJECT_ID": "2016-069C", "EPOCH": "2025-12-16T12:56:22.787232", "MEAN_MOTION": 1.70474953, "ECCENTRICITY": 0.00025393, "INCLINATION": 55.3843, "RA_OF_ASC_NODE": 106.1481, "ARG_OF_PERICENTER": 282.5474, "MEAN_ANOMALY": 77.384, "EPHEMERIS_TYPE": 0, "CLASSIFICATION_TYPE": "U", "NORAD_CAT_ID": 41861, "ELEMENT_SET_NO": 999, "REV_AT_EPOCH": 5640, "BSTAR": 0, "MEAN_MOTION_DOT": -9e-08, "MEAN_MOTION_DDOT": 0}, "tle": {"line1": "1 41861U 16069C   25350.53915263 -.00000009  00000+0  00000+0 0  9999", "line2": "2 41861  55.3843 106.1481 0002539 282.5474  77.3840  1.70474953 56406"}}, "geometry": {"type": "Point", "coordinates": [86.42084585734212, -26.022847050564035]}}, {"type": "Feature", "properties": {"norad_id": 41862, "name": "GSAT0214 (GALILEO 18)", "group": "gnss", "lat": -44.387432420337035, "lon": -31.418804334042314, "alt_km": 23224.659669462657, "timestamp": "2025-12-17T15:50:10.022235+00:00", "meta": {"OBJECT_NAME": "GSAT0214 (GALILEO 18)", "OBJECT_ID": "2016-069D", "EPOCH": "2025-12-14T22:12:36.299232", "MEAN_MOTION": 1.70474813, "ECCENTRICITY": 0.00014239, "INCLINATION": 55.3815, "RA_OF_ASC_NODE": 106.1855, "ARG_OF_PERICENTER": 290.4821, "MEAN_ANOMALY": 69.4663, "EPHEMERIS_TYPE": 0, "CLASSIFICATION_TYPE": "U", "NORAD_CAT_ID": 41862, "ELEMENT_SET_NO": 999, "REV_AT_EPOCH": 5650, "BSTAR": 0, "MEAN_MOTION_DOT": -6e-08, "MEAN_MOTION_DDOT": 0}, "tle": {"line1": "1 41862U 16069D   25348.92542013 -.00000006  00000+0  00000+0 0  9996", "line2": "2 41862  55.3815 106.1855 0001423 290.4821  69.4663  1.70474813 56507"}}, "geometry": {"type": "Point", "coordinates": [-31.418804334042314, -44.387432420337035]}}, {"type": "Feature", "properties": {"norad_id": 42709, "name": "SES-15 (WAAS/PRN 133)", "group": "gnss", "lat": -0.02205426726170713, "lon": -165.13081090937024, "alt_km": 35787.54785963072, "timestamp": "2025-12-17T15:50:10.022248+00:00", "meta": {"OBJECT_NAME": "SES-15 (WAAS/PRN 133)", "OBJECT_ID": "2017-026A", "EPOCH": "2025-12-16T10:54:44.591328", "MEAN_MOTION": 1.00268582, "ECCENTRICITY": 2.178e-05, "INCLINATION": 0.018, "RA_OF_ASC_NODE": 345.8628, "ARG_OF_PERICENTER": 345.8397, "MEAN_ANOMALY": 148.1495, "EPHEMERIS_TYPE": 0, "CLASSIFICATION_TYPE": "U", "NORAD_CAT_ID": 42709, "ELEMENT_SET_NO": 999, "REV_AT_EPOCH": 560, "BSTAR": 0, "MEAN_MOTION_DOT": 8.4e-07, "MEAN_MOTION_DDOT": 0}, "tle": {"line1": "1 42709U 17026A   25350.45468277  .00000084  00000+0  00000+0 0  9996", "line2": "2 42709   0.0180 345.8628 0000217 345.8397 148.1495  1.00268582  5603"}}, "geometry": {"type": "Point", "coordinates": [-165.13081090937024, -0.02205426726170713]}}]}